GSAT0101 (GALILEO-PFM)  
1 37846U 11060A   26037.62648021 -.00000104  00000+0  00000+0 0  9997
2 37846  57.0373 345.3049 0003861 346.6289  13.3555  1.70475735 88893
GSAT0102 (GALILEO-FM2)  
1 37847U 11060B   26040.06512219 -.00000101  00000+0  00000+0 0  9996
2 37847  57.0372 345.2392 0005462 331.4757 130.6713  1.70476060 88941
GSAT0103 (GALILEO-FM3)  
1 38857U 12055A   26038.84005953 -.00000025  00000+0  00000+0 0  9993
2 38857  55.7234 105.0962 0004620 280.0553  79.9531  1.70473426 82803
GSAT0201 (GALILEO 5)    
1 40128U 14050A   26037.98241529 -.00000047  00000+0  00000+0 0  9993
2 40128  49.0135 278.7652 1654136 174.3752 187.7761  1.85519990 75906
GSAT0202 (GALILEO 6)    
1 40129U 14050B   26038.77742375 -.00000040  00000+0  00000+0 0  9990
2 40129  49.0291 277.8167 1655145 175.1412 186.7245  1.85520735 78081
GSAT0203 (GALILEO 7)    
1 40544U 15017A   26039.16426261 -.00000103  00000+0  00000+0 0  9992
2 40544  56.8300 345.1154 0005563 290.3760  69.5614  1.70475785 67008
GSAT0204 (GALILEO 8)    
1 40545U 15017B   26040.00643742 -.00000101  00000+0  00000+0 0  9991
2 40545  56.8362 345.1106 0004637 285.3833  74.5633  1.70475475 30069
GSAT0206 (GALILEO 10)   
1 40890U 15045B   26039.99543612  .00000070  00000+0  00000+0 0  9990
2 40890  54.9865 225.1412 0004235  48.9450 311.0909  1.70473629 64856
GSAT0209 (GALILEO 12)   
1 41174U 15079A   26038.99037059 -.00000026  00000+0  00000+0 0  9997
2 41174  55.7441 104.8070 0003931 324.5221  35.5123  1.70474664 62578
GSAT0208 (GALILEO 11)   
1 41175U 15079B   26033.93133139 -.00000016  00000+0  00000+0 0  9992
2 41175  55.7396 104.9432 0003195 326.3973  33.6454  1.70474472 62907
GSAT0211 (GALILEO 14)   
1 41549U 16030A   26039.33461620  .00000067  00000+0  00000+0 0  9999
2 41549  55.1365 225.2359 0004014  27.2949 332.7237  1.70473739 60475
GSAT0210 (GALILEO 13)   
1 41550U 16030B   26039.59191391  .00000069  00000+0  00000+0 0  9996
2 41550  55.1365 225.2268 0000831 178.3020 181.6966  1.70473984 60479
GSAT0207 (GALILEO 15)   
1 41859U 16069A   26038.11049346 -.00000025  00000+0  00000+0 0  9992
2 41859  55.4134 104.6869 0004275 308.1182  51.9056  1.70474539 57183
GSAT0212 (GALILEO 16)   
1 41860U 16069B   26039.72381630 -.00000026  00000+0  00000+0 0  9998
2 41860  55.4121 104.6373 0002971 340.0139  20.0335  1.70474836 57467
GSAT0213 (GALILEO 17)   
1 41861U 16069C   26035.39866029 -.00000018  00000+0  00000+0 0  9999
2 41861  55.4119 104.7651 0004488 288.0305  71.9865  1.70474999 57256
GSAT0214 (GALILEO 18)   
1 41862U 16069D   26040.23733205 -.00000025  00000+0  00000+0 0  9996
2 41862  55.4132 104.6237 0003486 292.0549  67.9665  1.70475003 57466
GSAT0215 (GALILEO 19)   
1 43055U 17079A   26040.14085463  .00000071  00000+0  00000+0 0  9990
2 43055  55.1143 225.0273 0000963  26.1775 333.8271  1.70474439 50804
GSAT0216 (GALILEO 20)   
1 43056U 17079B   26040.43209308  .00000073  00000+0  00000+0 0  9991
2 43056  55.1137 225.0193 0001766 332.8597  27.1316  1.70474581 50823
GSAT0217 (GALILEO 21)   
1 43057U 17079C   26040.06625394  .00000071  00000+0  00000+0 0  9996
2 43057  55.1133 225.0271 0002304   3.0970 356.9039  1.70474459 50805
GSAT0218 (GALILEO 22)   
1 43058U 17079D   26037.93996117  .00000059  00000+0  00000+0 0  9999
2 43058  55.1134 225.0834 0001921 318.3104  41.6685  1.70474424 50792
GSAT0221 (GALILEO 25)   
1 43564U 18060A   26038.42957114 -.00000103  00000+0  00000+0 0  9992
2 43564  57.2120 345.2871 0006159 301.0112  58.9243  1.70475591 46954
GSAT0222 (GALILEO 26)   
1 43565U 18060B   26039.82218180 -.00000101  00000+0  00000+0 0  9999
2 43565  57.2150 345.2529 0005003 281.1555  78.7858  1.70475319 47023
GSAT0219 (GALILEO 23)   
1 43566U 18060C   26040.04325045 -.00000100  00000+0  00000+0 0  9994
2 43566  57.2142 345.2486 0005528 307.3286  52.6186  1.70475568 47000
GSAT0220 (GALILEO 24)   
1 43567U 18060D   26039.09102411 -.00000102  00000+0  00000+0 0  9990
2 43567  57.2144 345.2740 0005603 305.3025  54.6419  1.70475676 46975
GSAT0223 (GALILEO 27)   
1 49809U 21116A   26038.65541030 -.00000103  00000+0  00000+0 0  9997
2 49809  57.2037 345.1757 0003180 274.5520 268.8242  1.70475728 25971
GSAT0224 (GALILEO 28)   
1 49810U 21116B   26039.05450281 -.00000102  00000+0  00000+0 0  9990
2 49810  57.2042 345.1638 0002644 286.4603 254.4493  1.70475795 26003
GSAT0225 (GALILEO 29)   
1 59598U 24079A   26038.77743760 -.00000027  00000+0  00000+0 0  9996
2 59598  55.0338 104.6976 0002285 237.4965 126.1702  1.70475157 11118
GSAT0227 (GALILEO 30)   
1 59600U 24079C   26040.12811970 -.00000026  00000+0  00000+0 0  9990
2 59600  55.0298 104.6586 0000859 117.3773 242.6895  1.70475051 11189
GSAT0226 (GALILEO 31)   
1 61183U 24167B   26039.25793000  .00000067  00000+0  00000+0 0  9996
2 61183  55.2241 224.8546 0001682 112.6346  20.3389  1.70474175  8651
